STARLINK-5464           
1 54758U 22175A   25174.87058899  .00000353  00000+0  40235-4 0  9997
2 54758  53.2172 121.1975 0001389  88.3794 271.7357 15.08843574140919
STARLINK-5215           
1 54759U 22175B   25175.13923311 -.00000162  00000+0  78888-5 0  9993
2 54759  53.2175 120.0244 0001326  84.1874 275.9269 15.08838539140951
STARLINK-5220           
1 54760U 22175C   25175.13692915 -.00000393  00000+0 -66028-5 0  9998
2 54760  53.2169 124.9972 0001375  89.5535 270.5614 15.08839925140881
STARLINK-5202           
1 54761U 22175D   25175.14062274  .00000758  00000+0  65721-4 0  9990
2 54761  53.2165 125.0205 0001229  84.2284 275.8848 15.08840314140881
STARLINK-5214           
1 54762U 22175E   25175.25836015  .00000850  00000+0  71452-4 0  9996
2 54762  53.2173 124.3357 0001491  80.9263 279.1897 15.08847049140908
STARLINK-5191           
1 54763U 22175F   25175.13325160 -.00001167  00000+0 -55240-4 0  9999
2 54763  53.2171 124.9740 0001746  80.0057 280.1132 15.08832528140881
STARLINK-5458           
1 54764U 22175G   25175.24457672  .00000480  00000+0  48231-4 0  9993
2 54764  53.2167 124.2520 0001336  88.1487 271.9658 15.08838714140904
STARLINK-5471           
1 54766U 22175J   25175.58218500  .00000480  00000+0  48266-4 0  9995
2 54766  53.2172 122.8026 0001382  85.3416 274.7734 15.08842233140951
STARLINK-5472           
1 54767U 22175K   25175.11482342  .00000490  00000+0  48910-4 0  9999
2 54767  53.2175 124.8605 0001491  83.1328 276.9833 15.08838763140888
STARLINK-5444           
1 54768U 22175L   25175.54962071  .00003139  00000+0  21526-3 0  9995
2 54768  53.2175 108.3401 0001229  83.9092 276.2040 15.08836080141159
STARLINK-5448           
1 54770U 22175N   25175.53023161  .00000096  00000+0  24132-4 0  9991
2 54770  53.2185 108.2249 0001863  84.9528 275.1677 15.08839967141152
STARLINK-5451           
1 54771U 22175P   25174.23758713 -.00000052  00000+0  14808-4 0  9998
2 54771  53.2174 123.6451 0001376  94.2379 265.8771 15.08835270140821
STARLINK-5452           
1 54772U 22175Q   25175.52654489  .00001118  00000+0  88327-4 0  9997
2 54772  53.2180 108.2023 0001352  89.6667 270.4480 15.08839515141157
STARLINK-5453           
1 54773U 22175R   25175.23993270  .00000152  00000+0  27627-4 0  9993
2 54773  53.2170 124.2208 0001409  88.4899 271.6255 15.08837400140903
STARLINK-5454           
1 54774U 22175S   25175.21736986 -.00000130  00000+0  99045-5 0  9992
2 54774  53.2171 109.1241 0001486  90.3619 269.7543 15.08838675138956
STARLINK-5465           
1 54775U 22175T   25175.56744877  .00000632  00000+0  57804-4 0  9991
2 54775  53.2173 122.7116 0001466  88.4179 271.6981 15.08840062138791
STARLINK-5470           
1 54776U 22175U   25175.54534069 -.00000159  00000+0  81237-5 0  9993
2 54776  53.2163 122.5791 0001216  84.4568 275.6563 15.08844445140959
STARLINK-5468           
1 54777U 22175V   25174.57016045  .00000509  00000+0  50084-4 0  9998
2 54777  53.2170 127.1497 0001412  89.2812 270.8342 15.08838512138648
STARLINK-5450           
1 54778U 22175W   25175.51917674  .00000184  00000+0  29672-4 0  9990
2 54778  53.2188 108.1578 0001596  91.5615 268.5560 15.08839900141155
STARLINK-5447           
1 54779U 22175X   25175.52286341  .00000328  00000+0  38712-4 0  9997
2 54779  53.2174 108.1783 0001367  90.0362 270.0787 15.08834870141158
STARLINK-5449           
1 54780U 22175Y   25175.50443547  .00000227  00000+0  32336-4 0  9994
2 54780  53.2182 108.0600 0001478  91.3411 268.7751 15.08838385141158
STARLINK-5443           
1 54781U 22175Z   25175.11805031  .00000121  00000+0  25695-4 0  9995
2 54781  53.2175 109.9113 0001448  91.3625 268.7533 15.08837466141094
